GORIZONT 31 [-]         
1 23775U 96005A   17345.50350595 -.00000140  00000-0  00000-0 0  9992
2 23775  14.2056  20.2698 0019987 173.5468 154.1375  0.99881487 79982
